GLOBALSTAR M035         
1 25851U 99037A   26026.00783656 -.00000089  00000+0 -96643-3 0  9999
2 25851  51.9952 278.0558 0013830 347.6150  24.8854 11.04541452120887
GLOBALSTAR M032         
1 25852U 99037B   26026.28271867 -.00000173  00000+0 -34043-2 0  9995
2 25852  51.9957  87.2452 0012990 181.7150 178.3607 11.19069572159763
GLOBALSTAR M051         
1 25853U 99037C   26026.21202900 -.00000050  00000+0  54164-3 0  9991
2 25853  51.9759 222.8724 0001173  84.6617 275.4327 11.42199966157878
GLOBALSTAR M030         
1 25854U 99037D   26026.25594059 -.00000118  00000+0 -91441-3 0  9990
2 25854  51.9907  14.6824 0003542  81.0491 279.0727 11.55109533175829
GLOBALSTAR M048         
1 25872U 99041A   26025.82200017 -.00000049  00000+0  58116-3 0  9999
2 25872  51.9344 167.4509 0013077 204.9739 303.8014 11.33861950150233
GLOBALSTAR M026         
1 25873U 99041B   26026.22000823 -.00000122  00000+0 -21295-2 0  9998
2 25873  52.0032  33.1820 0001765 280.1038 163.3088 11.06842290173189
GLOBALSTAR M043         
1 25874U 99041C   26025.95705534 -.00000052  00000+0  48152-3 0  9992
2 25874  51.9404 283.6547 0013592 334.6898  38.6151 11.25696290147969
GLOBALSTAR M028         
1 25875U 99041D   26025.98053494 -.00000064  00000+0  23541-3 0  9995
2 25875  51.9605 248.7286 0062856 194.6005 165.3040 12.50594896218058
